[{"OBJECT_ID":"2009-008D","OBJECT_NAME":"SPIRALE B","NORAD_CAT_ID":"33752","OBJECT_TYPE":"PAYLOAD","PERIOD":"540.105","INCLINATION":"1.6849","APOGEE":"30922.141","PERIGEE":"259.825","ECCENTRICITY":"0.6978504","MEAN_MOTION":"2.6661453","TLE_LINE1":"1 33752U 09008D   16237.79622155  .00003248  00000-0  87853-3 0  9994","TLE_LINE2":"2 33752   1.6849 143.6620 6978504 101.6200 337.6349  2.66614530 66898","LAUNCH_DATE":"2009-02-12","LAUNCH_SITE":"FRENCH GUIANA","OWNER":"FRANCE","ORBIT_TYPE":"Highly Elliptical Orbit","OPERATIONAL_STATUS":"Operational","satInfo":{"lng":30.397214786058537,"lat":-0.21639961194682197,"elevation":-10.090172103732195,"azimuth":284.60278521394144,"range":37071.288666144836,"height":30120.03917969499,"velocity":1.8301420384671718},"x":144.45989682258661,"y":-251.40688897132281,"dx":1.5785675423573413,"dy":0.9260369297067361,"maxAlt":295.061936386589,"minAlt":0.589850455061141},{"OBJECT_ID":"2009-008E","OBJECT_NAME":"ARIANE 5 DEB (SYLDA)","NORAD_CAT_ID":"33753","OBJECT_TYPE":"DEBRIS","PERIOD":"384.943","INCLINATION":"1.8025","APOGEE":"22032.216","PERIGEE":"269.622","ECCENTRICITY":"0.6207578","MEAN_MOTION":"3.74080462","TLE_LINE1":"1 33753U 09008E   16238.11755375  .00018233  00000-0  33320-2 0  9992","TLE_LINE2":"2 33753   1.8025 170.5251 6207578  45.5599 350.8183  3.74080462 79796","LAUNCH_DATE":"2009-02-12","LAUNCH_SITE":"FRENCH GUIANA","OWNER":"FRANCE","ORBIT_TYPE":"Highly Elliptical Orbit","OPERATIONAL_STATUS":"N/A, space debris","satInfo":{"lng":-118.215869339701,"lat":-0.19297286011315737,"elevation":-14.017370359931979,"azimuth":73.21586933970097,"range":26603.989533111915,"height":19433.794087661718,"velocity":2.5199635341896327},"x":-166.36446516173106,"y":86.33537967627169,"dx":-1.191425764321742,"dy":-2.2205226550872785,"maxAlt":209.68564718114092,"minAlt":0.6839380323293156},{"OBJECT_ID":"2009-016A","OBJECT_NAME":"EUTE 10A (EUTE W2A)","NORAD_CAT_ID":"34710","OBJECT_TYPE":"PAYLOAD","PERIOD":"1436.117","INCLINATION":"0.0664","APOGEE":"35807.588","PERIGEE":"35766.418","ECCENTRICITY":"0.0004882","MEAN_MOTION":"1.00270335","TLE_LINE1":"1 34710U 09016A   16238.67960090  .00000041  00000-0  00000+0 0  9992","TLE_LINE2":"2 34710   0.0664 356.5461 0004882 158.2432  74.2210  1.00270335 27040","LAUNCH_DATE":"2009-04-03","LAUNCH_SITE":"TYURATAM MISSILE AND SPACE COMPLEX","OWNER":"EUROPEAN TELECOMMUNICATIONS SATELLITE ORGANIZATION (EUTELSAT)","ORBIT_TYPE":"Geosynchronous","OPERATIONAL_STATUS":"Operational","satInfo":{"lng":9.956316294940804,"lat":-0.21335389104030344,"elevation":-8.783279673323412,"azimuth":305.04368370505915,"range":42659.21209603326,"height":35781.10184794692,"velocity":3.075071236079538},"x":57.507508385674065,"y":-340.3617335419451,"dx":3.028760233957935,"dy":0.5316714701381051,"maxAlt":341.9803677535453,"minAlt":341.5849828851028},{"OBJECT_ID":"2009-020B","OBJECT_NAME":"BLOCK DM-SL R/B","NORAD_CAT_ID":"34811","OBJECT_TYPE":"ROCKET BODY","PERIOD":"793.443","INCLINATION":"1.7499","APOGEE":"35473.278","PERIGEE":"8551.152","ECCENTRICITY":"0.4741422","MEAN_MOTION":"1.81487462","TLE_LINE1":"1 34811U 09020B   16239.50600978 -.00000141  00000-0  00000+0 0  9990","TLE_LINE2":"2 34811   1.7499 306.7989 4741422 252.9097  51.8898  1.81487462 48731","LAUNCH_DATE":"2009-04-20","LAUNCH_SITE":"SEA LAUNCH","OWNER":"SEA LAUNCH DEMO","ORBIT_TYPE":"Highly Elliptical Orbit","OPERATIONAL_STATUS":"N/A, derelict rocket body","satInfo":{"lng":-134.45467179397818,"lat":-0.8949039864478571,"elevation":-9.803011819206278,"azimuth":89.45467179397815,"range":41044.05778704957,"height":34071.56306344986,"velocity":2.380972953075564},"x":-235.47199141343728,"y":227.25684195986858,"dx":-1.6675019640736815,"dy":-1.6995497648164901,"maxAlt":338.76975042614674,"minAlt":80.21737620459672},{"OBJECT_ID":"2009-034A","OBJECT_NAME":"SIRIUS FM-5","NORAD_CAT_ID":"35493","OBJECT_TYPE":"PAYLOAD","PERIOD":"1436.109","INCLINATION":"0.0157","APOGEE":"35788.217","PERIGEE":"35785.484","ECCENTRICITY":"3.24e-05","MEAN_MOTION":"1.00270879","TLE_LINE1":"1 35493U 09034A   16239.28970964 -.00000229  00000-0  00000+0 0  9999","TLE_LINE2":"2 35493   0.0157 101.3910 0000324 295.7342 315.9766  1.00270879 26059","LAUNCH_DATE":"2009-06-30","LAUNCH_SITE":"TYURATAM MISSILE AND SPACE COMPLEX","OWNER":"UNITED STATES OF AMERICA","ORBIT_TYPE":"Geosynchronous","OPERATIONAL_STATUS":"Operational","satInfo":{"lng":-101.95802514674311,"lat":1.9119856859867652,"elevation":-6.699994742617149,"azimuth":56.95802514674308,"range":42439.68380202259,"height":35795.167665469664,"velocity":3.0744006998773523},"x":-338.2121026576415,"y":69.32128534370133,"dx":-0.6370005905924091,"dy":-3.007685141598315,"maxAlt":341.79433422703084,"minAlt":341.76808727912083},{"OBJECT_ID":"2009-042A","OBJECT_NAME":"ASIASAT 5","NORAD_CAT_ID":"35696","OBJECT_TYPE":"PAYLOAD","PERIOD":"1436.125","INCLINATION":"0.0076","APOGEE":"35794.457","PERIGEE":"35779.859","ECCENTRICITY":"0.0001731","MEAN_MOTION":"1.00269783","TLE_LINE1":"1 35696U 09042A   16238.97690623 -.00000335 +00000-0 +00000-0 0  9998","TLE_LINE2":"2 35696 000.0076 184.0672 0001731 293.6575 309.1007 01.00269783025756","LAUNCH_DATE":"2009-08-11","LAUNCH_SITE":"TYURATAM MISSILE AND SPACE COMPLEX","OWNER":"ASIASAT CORP","ORBIT_TYPE":"Geosynchronous","OPERATIONAL_STATUS":"Operational","satInfo":{"lng":50.4577953722866,"lat":-0.01078681841273712,"elevation":-8.582360534446687,"azimuth":264.5422046277134,"range":42652.3796489586,"height":35796.637878686524,"velocity":3.074094996388796},"x":263.20301158067406,"y":-220.77215292301238,"dx":1.95711161668513,"dy":2.3706062867247164,"maxAlt":341.85426139679237,"minAlt":341.7140663929176},{"OBJECT_ID":"2009-044A","OBJECT_NAME":"JCSAT 12","NORAD_CAT_ID":"35755","OBJECT_TYPE":"PAYLOAD","PERIOD":"1436.031","INCLINATION":"0.0245","APOGEE":"35810.029","PERIGEE":"35760.605","ECCENTRICITY":"0.0005861","MEAN_MOTION":"1.00276349","TLE_LINE1":"1 35755U 09044A   16238.90252565  .00000000  00000-0  10000-3 0  9990","TLE_LINE2":"2 35755   0.0245  28.0313 0005861 291.9314 107.4948  1.00276349 25747","LAUNCH_DATE":"2009-08-21","LAUNCH_SITE":"FRENCH GUIANA","OWNER":"JAPAN","ORBIT_TYPE":"Geosynchronous","OPERATIONAL_STATUS":"Backup/Standby","satInfo":{"lng":112.80900855386413,"lat":-0.26830736673497757,"elevation":-8.836750108320167,"azimuth":202.19099144613585,"range":42666.09361867071,"height":35781.974079988606,"velocity":3.0757000827715544},"x":314.8625055843677,"y":131.31015621294978,"dx":-1.1923275094900103,"dy":2.835187138316322,"maxAlt":342.0038104172292,"minAlt":341.5291565008362},{"OBJECT_ID":"2009-044B","OBJECT_NAME":"OPTUS D3","NORAD_CAT_ID":"35756","OBJECT_TYPE":"PAYLOAD","PERIOD":"1436.176","INCLINATION":"0.0399","APOGEE":"35798.971","PERIGEE":"35777.356","ECCENTRICITY":"0.0002563","MEAN_MOTION":"1.00266195","TLE_LINE1":"1 35756U 09044B   16238.69646267  .00000000  00000-0  10000-3 0  9993","TLE_LINE2":"2 35756   0.0399 353.0742 0002563 163.0726 224.9107  1.00266195 25714","LAUNCH_DATE":"2009-08-21","LAUNCH_SITE":"FRENCH GUIANA","OWNER":"AUSTRALIA","ORBIT_TYPE":"Geosynchronous","OPERATIONAL_STATUS":"Operational","satInfo":{"lng":-143.87211607688783,"lat":0.3286457291087127,"elevation":-8.247702236547656,"azimuth":98.87211607688782,"range":42629.80918600119,"height":35811.45140086098,"velocity":3.0738644714699084},"x":-204.6787710181064,"y":275.8821437757522,"dx":-2.4827696973166358,"dy":-1.8123182444182477,"maxAlt":341.8976125577384,"minAlt":341.69002829902126},{"OBJECT_ID":"2009-044C","OBJECT_NAME":"ARIANE 5 R/B","NORAD_CAT_ID":"35757","OBJECT_TYPE":"ROCKET BODY","PERIOD":"599.077","INCLINATION":"1.73","APOGEE":"34072.678","PERIGEE":"252.059","ECCENTRICITY":"0.7183495","MEAN_MOTION":"2.40369373","TLE_LINE1":"1 35757U 09044C   16238.07918988 +.00001576 +00000-0 +51747-3 0  9990","TLE_LINE2":"2 35757 001.7300 121.3059 7183495 197.5431 111.8167 02.40369373059947","LAUNCH_DATE":"2009-08-21","LAUNCH_SITE":"FRENCH GUIANA","OWNER":"FRANCE","ORBIT_TYPE":"Highly Elliptical Orbit","OPERATIONAL_STATUS":"N/A, derelict rocket body","satInfo":{"lng":36.83946813070302,"lat":-3.436428304287681,"elevation":-12.455472484213486,"azimuth":278.16053186929696,"range":40463.2925393779,"height":33203.90332179865,"velocity":1.7321598122708126},"x":189.28751071792507,"y":-257.11162106666586,"dx":1.386279619447317,"dy":1.0385597873743517,"maxAlt":325.31878985435895,"minAlt":0.5152680191047624},{"OBJECT_ID":"2009-050A","OBJECT_NAME":"NIMIQ 5","NORAD_CAT_ID":"35873","OBJECT_TYPE":"PAYLOAD","PERIOD":"1436.101","INCLINATION":"0.0533","APOGEE":"35794.761","PERIGEE":"35778.603","ECCENTRICITY":"0.0001916","MEAN_MOTION":"1.00271479","TLE_LINE1":"1 35873U 09050A   16238.29841834 -.00000283  00000-0  00000+0 0  9992","TLE_LINE2":"2 35873   0.0533 281.2291 0001916 235.3819 212.0984  1.00271479 25433","LAUNCH_DATE":"2009-09-17","LAUNCH_SITE":"TYURATAM MISSILE AND SPACE COMPLEX","OWNER":"CANADA","ORBIT_TYPE":"Geosynchronous","OPERATIONAL_STATUS":"Operational","satInfo":{"lng":-90.25829855933827,"lat":-2.0806005634645706,"elevation":-10.599521656554689,"azimuth":45.25829855933827,"range":42875.34242629226,"height":35793.39225684988,"velocity":3.0746971320997725},"x":-345.65141142091966,"y":-0.3557618315883482,"dx":-0.013861180635887729,"dy":-3.074665887834635,"maxAlt":341.85718092557556,"minAlt":341.7020041292605}]